STARLINK-4498           
1 53434U 22097AY  26068.79514616  .00001141  00000+0  89756-4 0  9995
2 53434  53.2166 103.3697 0001296  90.4558 269.6582 15.08843577198815
SEDNA-2                 
1 63153U 25009DQ  26068.79893845  .00008085  00000+0  49393-3 0  9990
2 63153  97.4615 144.8075 0010309  53.0260 307.1912 15.10492622 63116
